[{"OBJECT_NAME":"BEIDOU-3 M25 (C47)","OBJECT_ID":"2024-168B","EPOCH":"2026-03-07T04:04:38.698176","MEAN_MOTION":1.86230307,"ECCENTRICITY":0.00042589,"INCLINATION":54.5633,"RA_OF_ASC_NODE":305.7886,"ARG_OF_PERICENTER":319.2946,"MEAN_ANOMALY":221.4621,"EPHEMERIS_TYPE":0,"CLASSIFICATION_TYPE":"U","NORAD_CAT_ID":61186,"ELEMENT_SET_NO":999,"REV_AT_EPOCH":988,"BSTAR":0,"MEAN_MOTION_DOT":-6.9e-7,"MEAN_MOTION_DDOT":0},{"OBJECT_NAME":"BEIDOU-3 M27 (C49)","OBJECT_ID":"2024-168C","EPOCH":"2026-03-05T07:36:19.714176","MEAN_MOTION":1.86230358,"ECCENTRICITY":0.000298,"INCLINATION":54.5604,"RA_OF_ASC_NODE":305.8361,"ARG_OF_PERICENTER":20.4343,"MEAN_ANOMALY":132.974,"EPHEMERIS_TYPE":0,"CLASSIFICATION_TYPE":"U","NORAD_CAT_ID":61187,"ELEMENT_SET_NO":999,"REV_AT_EPOCH":732,"BSTAR":0,"MEAN_MOTION_DOT":-6.7e-7,"MEAN_MOTION_DDOT":0}]
